#dP2024  9  8 12  0  0.00000000      96 __u+U IGS20 EXT  IAC
## 2331  43200.00000000   900.00000000 60561 0.5000000000000
+   54   G01G02G03G04G05G06G07G08G09G10G11G12G13G14G15G16G17
+        G18G19G20G21G22G23G24G25G26G27G28G29G30G31G32R01R02
+        R03R04R05R07R08R09R11R12R14R15R16R17R18R19R20R21R22
+        R24R25R26  0  0  0  0  0  0  0  0  0  0  0  0  0  0
+          0  0  0  0  0  0  0  0  0  0  0  0  0  0  0  0  0
++         0  9  9  7  7  9  8  8  6  6  9  7  6  7  7  7  7
++         9  7  7  9  6  6  7  8  7  7  8  8  6  7  6  8  9
++         9  7  8  8  8  8  8  8  9  9  9  7  8 10  9  6  8
++         7  7  9  0  0  0  0  0  0  0  0  0  0  0  0  0  0
++         0  0  0  0  0  0  0  0  0  0  0  0  0  0  0  0  0
%c M  cc GPS ccc cccc cccc cccc cccc ccccc ccccc ccccc ccccc
%c cc cc ccc ccc cccc cccc cccc cccc ccccc ccccc ccccc ccccc
%f  0.0000000  0.000000000  0.00000000000  0.000000000000000
%f  0.0000000  0.000000000  0.00000000000  0.000000000000000
%i    0    0    0    0      0      0      0      0         0
%i    0    0    0    0      0      0      0      0         0
/* IAC                                ULTRA-RAPID PREDICTION
/* S/V CLOCKS ARE ALIGNED TO GNSS TIME                      
/* G:C1WC2W R:C1PC2P E:C1XC5X C:C2IC6I J:C1CC2S             
/* PCV:IGS20_2317 OL/AL:FES2004  NONE     YN ORB:CoN CLK:CoN
*  2024 09 09  6  0  0.00000000
PG01  11209.559074  11832.886427 -21396.968450    201.819880
PG02  13812.004027 -12385.596396  19353.495306   -361.872961
PG03  22526.487498 -13076.626290  -5050.510580    531.209967
PG04  14690.672965  -6843.619357 -21055.790420    440.224053
PG05 -24067.679361   3294.528543 -11005.270601   -185.983461
PG06  -5839.408780 -22062.719120 -13431.023799     43.296165
PG07   6095.919003 -25159.598388  -4185.043283    -40.129313
PG08  22149.236401   2771.669434  14601.353858    346.123974
PG09   4082.276258 -15441.954912 -21302.893890    348.829353
PG10   5220.396588  13825.685107  22274.736706   -119.431246
PG11 -13277.987791  -9012.357398 -21146.696868   -732.447709
PG12 -24504.394503  10016.502703  -2088.694559   -536.686475
PG13 -21519.229533 -12257.203853   9691.971891    675.493720
PG14   -895.570256 -16085.296962  21131.071341    491.449490
PG15 -22136.250272    108.737978  14280.429181    202.175044
PG16  22906.429195   2733.750859 -13883.674067   -185.946851
PG17 -10226.978809 -20764.545082  13293.673578    632.157452
PG18  -6386.526031  25325.792598  -4093.215649   -652.206475
PG19 -16828.378442 -20239.186576   4821.340847    535.680412
PG20 -18278.809905  -3873.261455 -18749.442768    370.828528
PG21  15098.831028  -5414.121457  21399.409986    102.100892
PG22  -8935.130627 -13072.484642  21701.088447    -60.014559
PG23  -8879.888157  17321.749479  17993.695991    316.099802
PG24 -14385.561486  10504.052366  19135.624629   -486.782694
PG25 -16603.273956  16900.032820 -12078.655089    499.591066
PG26  14016.166933   9890.613983 -20514.352386     82.947081
PG27  23081.150505  12295.235104   5499.093473    -33.765620
PG28   5757.755964  23370.537217 -11240.118437   -404.388851
PG29  -8026.036237  12879.762260 -21833.807401   -579.029000
PG30  -1103.186903 -25801.704466   5716.816547   -324.724410
PG31  12055.532785  13448.597211 -19575.881343   -224.915445
PG32  12831.827333  20039.151288  12223.192067   -598.865573
PR01   5048.808836  12019.558535  21917.268983     97.174247
PR02  20009.791410  11371.470894  11114.288579    -24.573568
PR03  24437.179724   3987.534605  -6227.468054    107.196314
PR04  15355.409205  -4929.914549 -19746.894321    253.818825
PR05  -1789.790022 -11484.515943 -22697.814444    137.386048
PR07 -24259.704743  -3628.259181   6928.928440     90.525858
PR08 -15060.946800   5350.798272  19919.253340     -6.392593
PR09  -7781.497452  -8263.829629  22864.614558    208.112652
PR11 -18977.796182  16813.696104   2901.887115     12.357838
PR12  -8128.574147  18417.934415 -15628.779563     44.623206
PR14  18017.563998  -6341.911539 -16877.530227     26.901338
PR15  18605.887127 -17406.802228  -1099.263222     76.063870
PR16   8235.019230 -18422.750333  15592.871640     28.975693
PR17  11501.951003   3784.689370  22452.707955    120.378717
PR18   6576.650210 -13325.137063  20738.453815    161.145401
PR19      3.765431 -23427.136712  10111.929178   -290.728190
PR20  -9119.557735 -21093.241254 -11031.313604   -118.837278
PR21 -11486.031782  -4739.885551 -22281.282837   -132.929035
PR22  -6702.251848  14389.493485 -19940.866971     51.205546
PR24  10479.721271  20247.459718  11430.935550    -71.277051
PR25 -11610.682513  -3854.510274 -22380.450932   -100.866071
PR26 -16377.354974   4622.590128  19024.062150     21.267230
*  2024 09 09  6 15  0.00000000
PG01   9034.731847  12830.590317 -21824.775978    201.811604
PG02  13908.395953 -10184.387352  20588.130984   -361.865825
PG03  22964.140340 -13070.092213  -2178.366641    531.222250
PG04  16523.083826  -5364.074682 -20118.648351    440.230549
PG05 -22939.073694   2505.171962 -13396.973812   -185.984623
PG06  -5541.054753 -23445.525791 -10997.842431     43.273054
PG07   6348.419621 -24427.296723  -6949.188404    -40.124913
PG08  23340.642655   3781.010171  12407.206931    346.135917
PG09   6138.495256 -14120.501996 -21729.364891    348.843698
PG10   2954.052986  14840.649107  22004.470135   -119.442063
PG11 -12884.977350 -11352.284711 -20251.248432   -732.451699
PG12 -24638.685601   9792.958399    770.150367   -536.688973
PG13 -22099.023809 -13069.035303   7045.635320    675.495542
PG14   1316.339258 -16957.078946  20393.325820    491.457245
PG15 -23445.313400   -821.843336  12093.826675    202.178954
PG16  21417.586692   3435.173279 -15958.533072   -185.937588
PG17  -8875.646781 -19915.277265  15470.845671    632.147595
PG18  -6542.584454  24671.099466  -6896.948961   -652.208592
PG19 -16156.189124 -19918.886921   7547.443421    535.684901
PG20 -16523.471124  -5265.526821 -20006.389726    370.828207
PG21  15187.821116  -3008.970730  21906.999382    102.100288
PG22  -6673.787494 -13923.651581  22014.876875    -60.018010
PG23 -10689.049368  18070.135802  16159.507135    316.107426
PG24 -14551.539475   8151.413195  20145.671381   -486.782557
PG25 -17800.893942  17195.851662  -9614.470816    499.591159
PG26  11999.223170  11108.295052 -21131.162135     82.939593
PG27  23363.791399  12761.241293   2719.718827    -33.765782
PG28   5468.384904  24495.126362  -8700.290970   -404.401522
PG29  -9957.331394  11305.428462 -21921.358207   -579.026809
PG30   -723.322361 -26255.235840   2955.050321   -324.718011
PG31  11671.507980  15548.459900 -18152.409379   -224.914994
PG32  11503.384072  19343.421673  14478.717883   -598.862400
PR01   2367.292519  11389.593547  22694.042613     97.175163
PR02  18567.455388  10836.739512  13823.987234    -24.573776
PR03  25038.354409   3970.619649  -3078.527824    107.196905
PR04  17632.519979  -4438.289844 -17876.713993    253.820367
PR05    939.128115 -10734.111407 -23114.597938    137.386533
PR07 -24936.089557  -3639.005708   3794.082682     90.526550
PR08 -17348.165426   4865.968821  18091.072111     -6.392633
PR09  -5908.692308 -10340.251675  22571.368311    208.114530
PR11 -18494.280717  16513.681440   6050.550383     12.356886
PR12  -9286.572871  19773.325990 -13132.006769     44.623590
PR14  16450.433524  -4783.289225 -18873.350454     26.901337
PR15  18282.033582 -17253.385679  -4281.007215     76.063528
PR16   9368.027348 -19785.451557  13075.654430     28.976162
PR17  12281.875701   6379.148898  21424.303239    120.381687
PR18   7173.345194 -10754.995532  21998.601676    161.147021
PR19    136.801165 -21997.031169  12929.383778   -290.729491
PR20  -9577.617223 -22201.979469  -8070.942290   -118.837684
PR21 -12248.691183  -7312.935160 -21153.827140   -132.931903
PR22  -7232.340527  11890.181264 -21350.402760     51.197449
PR24  10940.807694  21395.985257   8532.999140    -71.278502
PR25 -12277.635513  -6473.779374 -21401.377891   -100.865520
PR26 -18558.406123   4191.024489  17015.245523     21.276858
EOF
